      2.10          N: GNSS NAV DATA                        RINEX VERSION / TYPE
fic2rin                                 06/13/2020 00:17:33 PGM / RUN BY / DATE
                                                            END OF HEADER
17 20  6 12 14  0  0.0 2.796598710120e-04 5.911715561524e-12 0.000000000000e+00
    6.900000000000e+01 4.134375000000e+01 3.999809465262e-09 1.197201503997e+00
    1.933425664902e-06 1.321555126924e-02 8.560717105865e-06 5.153714662552e+03
    4.824000000000e+05-2.346932888031e-07 1.824893506985e+00-1.993030309677e-07
    9.837295808114e-01 2.302812500000e+02-1.641523444932e+00-7.966403261244e-09
   -6.285976121851e-11 1.000000000000e+00 2.109000000000e+03 0.000000000000e+00
    2.400000000000e+00 0.000000000000e+00-1.071020960808e-08 6.900000000000e+01
    4.752000000000e+05 4.000000000000e+00
32 20  6 12 14  0  0.0 2.986383624375e-04 6.934897101019e-12 0.000000000000e+00
    4.400000000000e+01-1.134375000000e+01 4.459828626906e-09 1.963585635429e+00
   -4.954636096954e-07 4.038749029860e-03 9.352341294289e-06 5.153725570679e+03
    4.824000000000e+05-1.043081283569e-07-1.381415538119e+00-4.284083843231e-08
    9.564650639234e-01 1.935000000000e+02-2.434652030264e+00-7.954974213749e-09
    2.128660095809e-10 1.000000000000e+00 2.109000000000e+03 0.000000000000e+00
    2.400000000000e+00 0.000000000000e+00 4.656612873077e-10 4.400000000000e+01
    4.752000000000e+05 4.000000000000e+00
30 20  6 12 14  0  0.0-2.401452511549e-04-7.958078640513e-12 0.000000000000e+00
    1.110000000000e+02 2.831250000000e+01 5.279505626887e-09-1.650285829760e+00
    1.166015863419e-06 4.687146865763e-03 6.452202796936e-06 5.153630594254e+03
    4.824000000000e+05 5.401670932770e-08-2.933708852178e-01-5.401670932770e-08
    9.385935139244e-01 2.412500000000e+02-2.853676875782e+00-8.374634551430e-09
    2.196520065306e-10 1.000000000000e+00 2.109000000000e+03 0.000000000000e+00
    3.400000000000e+00 0.000000000000e+00 3.725290298462e-09 1.110000000000e+02
    4.752000000000e+05 4.000000000000e+00
24 20  6 12 14  0  0.0-1.423154026270e-05-4.547473508865e-13 0.000000000000e+00
    7.200000000000e+01 3.268750000000e+01 5.350222858257e-09-6.291845144377e-01
    1.896172761917e-06 9.691614774056e-03 6.783753633499e-06 5.153647874832e+03
    4.824000000000e+05 9.313225746155e-08-3.881864022075e-01 1.303851604462e-07
    9.365063350536e-01 2.368437500000e+02 6.676678984536e-01-8.507854386285e-09
    1.632210845276e-10 1.000000000000e+00 2.109000000000e+03 0.000000000000e+00
    2.400000000000e+00 0.000000000000e+00 2.793967723846e-09 7.200000000000e+01
    4.752000000000e+05 4.000000000000e+00
25 20  6 12 14  0  0.0 1.237960532308e-05 3.637978807092e-12 0.000000000000e+00
    8.200000000000e+01 9.281250000000e+00 4.607691928864e-09-2.498073802184e+00
    4.582107067108e-07 9.128314908594e-03 6.876885890961e-06 5.153780675888e+03
    4.824000000000e+05 1.732259988785e-07 7.210658463954e-01-8.940696716309e-08
    9.655885598393e-01 2.486250000000e+02 9.387350336936e-01-7.982118201548e-09
   -1.478633019572e-10 1.000000000000e+00 2.109000000000e+03 0.000000000000e+00
    2.400000000000e+00 0.000000000000e+00 5.587935447693e-09 8.200000000000e+01
    4.752000000000e+05 4.000000000000e+00
26 20  6 12 14  0  0.0 2.240338362753e-04 7.048583938740e-12 0.000000000000e+00
    7.800000000000e+01 1.165625000000e+01 4.994850912732e-09 3.133921172625e+00
    6.109476089478e-07 4.746995051391e-03 6.979331374168e-06 5.153630804062e+03
    4.824000000000e+05-1.005828380585e-07 6.854830397944e-01 1.117587089539e-08
    9.466784682038e-01 2.391250000000e+02 2.251315207172e-01-8.148196547949e-09
   -2.489389407347e-10 1.000000000000e+00 2.109000000000e+03 0.000000000000e+00
    2.400000000000e+00 0.000000000000e+00 6.984919309616e-09 7.800000000000e+01
    4.752000000000e+05 4.000000000000e+00
18 20  6 12 14  0  0.0 2.180403098464e-04 1.080024958355e-11 0.000000000000e+00
    2.100000000000e+02-3.250000000000e+00 4.412326648258e-09-2.717617857978e-01
   -2.365559339523e-07 5.918102106079e-04 5.064532160759e-06 5.153723943710e+03
    4.824000000000e+05 1.862645149231e-09 2.839190603068e+00-3.166496753693e-08
    9.642165548041e-01 2.866250000000e+02 2.560271276981e+00-8.138196131392e-09
   -1.607209803882e-11 1.000000000000e+00 2.109000000000e+03 0.000000000000e+00
    2.400000000000e+00 0.000000000000e+00-7.916241884232e-09 2.100000000000e+02
    4.752000000000e+05 4.000000000000e+00
28 20  6 12 14  0  0.0 7.092878222466e-04-3.296918293927e-12 0.000000000000e+00
    8.600000000000e+01 9.781250000000e+00 4.219818629527e-09 2.020838215977e+00
    3.762543201447e-07 1.839706907049e-02 7.508322596550e-06 5.153664562225e+03
    4.824000000000e+05 3.241002559662e-07 8.127799243920e-01-1.322478055954e-07
    9.774642567040e-01 2.394062500000e+02-1.404965650413e+00-7.613174262124e-09
   -3.793015137162e-10 1.000000000000e+00 2.109000000000e+03 0.000000000000e+00
    4.850000000000e+00 0.000000000000e+00-1.117587089539e-08 8.600000000000e+01
    4.752000000000e+05 4.000000000000e+00
 4 20  6 12 14  0  0.0-1.015365123749e-04-4.888534022029e-12 0.000000000000e+00
    1.870000000000e+02-4.062500000000e+00 4.363753196408e-09 2.699961811904e-01
   -1.955777406693e-07 7.752969395369e-04 1.000985503197e-05 5.153675195694e+03
    4.824000000000e+05 1.490116119385e-08-1.341823613299e+00 9.313225746155e-08
    9.596266712741e-01 1.861250000000e+02-2.605666597821e+00-7.885328455581e-09
    2.967980771169e-10 1.000000000000e+00 2.109000000000e+03 0.000000000000e+00
    2.400000000000e+00 0.000000000000e+00-4.190951585770e-09 1.870000000000e+02
    4.752600000000e+05 4.000000000000e+00
 9 20  6 12 13 59 44.0-2.349624410272e-04-6.934897101019e-12 0.000000000000e+00
    3.000000000000e+00-1.509375000000e+01 4.534117435619e-09 1.625481809419e+00
   -7.115304470062e-07 1.510567497462e-03 1.017749309540e-05 5.153716606140e+03
    4.823840000000e+05 5.774199962616e-08-1.389880728214e+00-7.450580596924e-09
    9.523500201953e-01 1.776562500000e+02 1.806889109396e+00-7.976403677801e-09
    2.964409193827e-10 1.000000000000e+00 2.109000000000e+03 0.000000000000e+00
    2.400000000000e+00 0.000000000000e+00 1.396983861923e-09 3.000000000000e+00
    4.755600000000e+05 4.000000000000e+00
12 20  6 12 13 59 44.0 1.069335266948e-04-4.433786671143e-12 0.000000000000e+00
    5.000000000000e+00 1.165625000000e+01 4.339466470482e-09-2.310348988497e+00
    6.482005119324e-07 8.042015950195e-03 7.105991244316e-06 5.153677898407e+03
    4.823840000000e+05 1.303851604462e-07 7.901998452811e-01-5.587935447693e-09
    9.782260069254e-01 2.516875000000e+02 1.159551382027e+00-7.827826060376e-09
   -1.660783464012e-10 1.000000000000e+00 2.109000000000e+03 0.000000000000e+00
    2.400000000000e+00 0.000000000000e+00-1.210719347000e-08 5.000000000000e+00
    4.790700000000e+05 4.000000000000e+00
 5 20  6 12 13 59 44.0-1.450395211577e-05-7.958078640513e-13 0.000000000000e+00
    2.300000000000e+01-7.331250000000e+01 4.665908639538e-09 2.070138824426e+00
   -3.879889845848e-06 5.916424561292e-03 6.414949893951e-06 5.153680175781e+03
    4.823840000000e+05-1.862645149231e-08-2.453106541414e+00-7.078051567078e-08
    9.528463809850e-01 2.549062500000e+02 8.032123977290e-01-8.222842514396e-09
   -9.393248409357e-11 1.000000000000e+00 2.109000000000e+03 0.000000000000e+00
    2.400000000000e+00 0.000000000000e+00-1.117587089539e-08 2.300000000000e+01
    4.791600000000e+05 4.000000000000e+00
30 20  6 12 13 59 44.0-2.401466481388e-04-7.958078640513e-12 0.000000000000e+00
    2.900000000000e+01 2.831250000000e+01 5.279505626887e-09-1.652619971147e+00
    1.166015863419e-06 4.687142209150e-03 6.452202796936e-06 5.153630596161e+03
    4.823840000000e+05 5.401670932770e-08-2.933707637956e-01-5.401670932770e-08
    9.385935241649e-01 2.412500000000e+02-2.853676508590e+00-8.374634551430e-09
    2.196520065306e-10 1.000000000000e+00 2.109000000000e+03 0.000000000000e+00
    2.400000000000e+00 0.000000000000e+00 3.725290298462e-09 2.900000000000e+01
    4.804500000000e+05 4.000000000000e+00
 5 20  6 12 15 59 44.0-1.450954005122e-05-7.958078640513e-13 0.000000000000e+00
    2.400000000000e+01-7.840625000000e+01 4.691266838666e-09 3.120403478953e+00
   -4.034489393234e-06 5.917422589846e-03 6.575137376785e-06 5.153678091049e+03
    4.895840000000e+05 5.774199962616e-08-2.453165223447e+00-3.725290298462e-09
    9.528460664576e-01 2.484687500000e+02 8.031262640383e-01-8.126409926163e-09
   -1.132190017402e-10 1.000000000000e+00 2.109000000000e+03 0.000000000000e+00
    2.400000000000e+00 0.000000000000e+00-1.117587089539e-08 2.400000000000e+01
    4.824000000000e+05 4.000000000000e+00
12 20  6 12 15 59 44.0 1.069013960660e-04-4.433786671143e-12 0.000000000000e+00
    8.000000000000e+00 1.425000000000e+01 4.358752988129e-09-1.260226039530e+00
    9.853392839432e-07 8.042051456869e-03 7.322058081627e-06 5.153677072525e+03
    4.895840000000e+05 1.043081283569e-07 7.901435770630e-01 1.471489667892e-07
    9.782242367945e-01 2.499375000000e+02 1.159605492440e+00-7.941402219850e-09
   -2.135803250493e-10 1.000000000000e+00 2.109000000000e+03 0.000000000000e+00
    2.400000000000e+00 0.000000000000e+00-1.210719347000e-08 8.000000000000e+00
    4.824000000000e+05 4.000000000000e+00
 9 20  6 12 15 59 44.0-2.350122667849e-04-6.934897101019e-12 0.000000000000e+00
    5.600000000000e+01-9.375000000000e+00 4.444113686602e-09 2.675116110101e+00
   -4.321336746216e-07 1.510402187705e-03 1.001358032227e-05 5.153718004227e+03
    4.895840000000e+05-9.313225746155e-08-1.389937063726e+00 7.823109626770e-08
    9.523521911657e-01 1.816562500000e+02 1.807408037160e+00-7.862827518327e-09
    1.875078104529e-10 1.000000000000e+00 2.109000000000e+03 0.000000000000e+00
    2.400000000000e+00 0.000000000000e+00 1.396983861923e-09 5.600000000000e+01
    4.824000000000e+05 4.000000000000e+00
